ASTRA 2C                
1 26853U 01025A   18204.87063098  .00000124  00000-0  00000-0 0  9995
2 26853   1.2617  90.2207 0003056  23.9286 164.5029  1.00270492 16129
INTELSAT 902 (IS-902)   
1 26900U 01039A   18204.79606278  .00000021  00000-0  00000-0 0  9993
2 26900   0.0216  79.0167 0002997  51.7360 159.2953  1.00272555 61780
EUTELSAT 12 WEST B      
1 26927U 01042A   18204.87029823 -.00000111  00000-0  00000-0 0  9991
2 26927   0.0616 346.6217 0006113 124.7319 131.0021  1.00272452 61589
DIRECTV 4S              
1 26985U 01052A   18204.85258935 -.00000124  00000-0  00000-0 0  9996
2 26985   0.0123 339.0347 0002930 127.2997  40.9132  1.00271999 22380
ECHOSTAR 7              
1 27378U 02006A   18204.63631530 -.00000012  00000-0  00000-0 0  9991
2 27378   0.0077  58.9999 0002668  40.0415 312.5493  1.00272471 21697
INTELSAT 904 (IS-904)   
1 27380U 02007A   18204.03945961  .00000124  00000-0  00000-0 0  9998
2 27380   0.0173 141.7025 0002730 336.1577 242.1524  1.00275337 60157
TDRS 9                  
1 27389U 02011A   18204.87029823 -.00000116  00000-0  00000-0 0  9996
2 27389   6.0676  74.4616 0016887 262.6769 265.6923  1.00272056 61511
JCSAT 2A                
1 27399U 02015A   18204.89132207 -.00000268  00000-0  00000-0 0  9992
2 27399   1.3408  90.2936 0005372 174.4808  90.6575  1.00275223 59969
ASTRA 3A                
1 27400U 02015B   18204.47989937 -.00000296  00000-0  00000-0 0  9990
2 27400   4.5758  66.9247 0003081  49.2595 310.7250  1.00269572 59794
INTELSAT 903 (IS-903)   
1 27403U 02016A   18204.86645986 -.00000236  00000-0  00000-0 0  9994
2 27403   0.7075  94.1242 0003124  24.4558 103.3699  1.00271711 16746
NSS-7                   
1 27414U 02019A   18204.44342454 -.00000170  00000-0  00000-0 0  9994
2 27414   2.7302  80.9485 0002482  34.1673 325.6392  1.00272229 59636
DIRECTV 5 (TEMPO 1)     
1 27426U 02023A   18204.46944244 -.00000067  00000-0  00000-0 0  9994
2 27426   0.0171  72.1807 0003511  47.3946 240.4451  1.00271489 59400
INTELSAT 905 (IS-905)   
1 27438U 02027A   18204.72426541 -.00000196  00000-0  00000-0 0  9998
2 27438   0.0300 188.7858 0002641 274.8309  74.0041  1.00272192 59037
EXPRESS-A4              
1 27441U 02029A   18204.90179038 -.00000261  00000-0  00000-0 0  9993
2 27441   6.7219  54.0787 0010265  82.5208 275.1213  1.00272562 59038
GALAXY 3C (G-3C)        
1 27445U 02030A   18203.43027538 -.00000164  00000-0  00000-0 0  9995
2 27445   0.0182 332.1802 0001796   6.1934  21.6032  1.00270899 59015
EUTELSAT 5 WEST A       
1 27460U 02035A   18204.17839155 -.00000055  00000-0  00000-0 0  9994
2 27460   0.0357  16.7828 0005746  97.5053 245.7571  1.00271604 58699
N-STAR C                
1 27461U 02035B   18204.89987119 -.00000326  00000-0  00000-0 0  9999
2 27461   5.3661  62.6236 0004425  17.4895 321.4317  1.00272431 58797
EUTELSAT 36 WEST A      
1 27508U 02040A   18204.00015642  .00000042  00000-0  00000-0 0  9997
2 27508   0.1321  70.2566 0002465  83.2209 206.5201  1.00271182 58267
METEOSAT-8 (MSG-1)      
1 27509U 02040B   18204.20746189  .00000125  00000-0  00000-0 0  9999
2 27509   5.5260  56.8517 0000076 238.9391 121.0662  1.00271592 58315
INTELSAT 906 (IS-906)   
1 27513U 02041A   18204.88591000  .00000003  00000-0  00000-0 0  9994
2 27513   0.0085 151.8938 0003101 352.7567 179.9767  1.00271930 58101
KALPANA-1 (METSAT 1)    
1 27525U 02043A   18190.14304142 -.00000091  00000-0  00000+0 0  9998
2 27525   6.9762  52.8402 0011092 248.3310 111.5154  1.00276312 57965
HISPASAT 1D             
1 27528U 02044A   18204.72321858 -.00000228  00000-0  00000-0 0  9998
2 27528   0.0335 326.6894 0003053 150.1517  54.8923  1.00271222 13884
TDRS 10                 
1 27566U 02055A   18204.80442368  .00000063  00000-0  00000-0 0  9997
2 27566   5.7174  56.6750 0005724 259.5735 100.3746  1.00271522 57301
NSS-6                   
1 27603U 02057A   18204.85952221 -.00000281  00000-0  00000-0 0  9993
2 27603   0.0210  56.9886 0001400  93.4969 195.4907  1.00268119 57162
NIMIQ 2                 
1 27632U 02062A   18204.46354946 -.00000220  00000-0  00000-0 0  9991
2 27632   2.8351  80.2187 0001939 342.5842  17.2144  1.00273557 15271
INTELSAT 907 (IS-907)   
1 27683U 03007A   18204.24056842 -.00000214  00000-0  00000-0 0  9990
2 27683   0.0196 137.4214 0003135 338.6705 243.9254  1.00271551 56518
GALAXY 12 (G-12)        
1 27715U 03013B   18204.70341604  .00000048  00000-0  00000-0 0  9991
2 27715   0.0237 306.2530 0002089 195.4928 283.8372  1.00272029 23205
ASIASAT 4               
1 27718U 03014A   18204.93035105  .00000142  00000-0  00000-0 0  9991
2 27718   0.0004 150.2164 0000329 206.1357 318.3717  1.00272580 16369
HELLAS-SAT 2            
1 27811U 03020A   18204.93050222  .00000141  00000-0  00000-0 0  9998
2 27811   0.3264 105.4497 0005701  72.6480 137.4581  1.00274284 13928
THURAYA-2               
1 27825U 03026A   18204.92806236  .00000117  00000-0  00000-0 0  9995
2 27825   5.2680  30.6371 0004610  88.1747 200.8911  1.00273923 55416
OPTUS C1                
1 27831U 03028B   18204.90388404 -.00000158  00000-0  00000-0 0  9990
2 27831   0.0593 224.8988 0004168 264.2812 293.7937  1.00272628 24122
ECHOSTAR 12 (RAINBOW 1) 
1 27852U 03033A   18204.83799293 -.00000210  00000-0  00000-0 0  9992
2 27852   0.0514 274.8251 0001705 201.2317  40.7344  1.00272988 55036
GALAXY 23 (G-23)        
1 27854U 03034A   18204.63521654  .00000002  00000-0  00000-0 0  9995
2 27854   0.0054  32.5865 0002871  89.5180 286.8909  1.00271260 54803
GALAXY 13 (HORIZONS-1)  
1 27954U 03044A   18204.70376498  .00000037  00000-0  00000-0 0  9997
2 27954   0.0129  74.3680 0001157  48.1149 305.2265  1.00271851 54221
YAMAL 202               
1 28089U 03053A   18204.92628999  .00000108  00000-0  00000-0 0  9996
2 28089   0.0408  87.3736 0002912 355.7629 240.9276  1.00274904 53742
EXPRESS-AM22 (SESAT 2)  
1 28134U 03060A   18204.81690990 -.00000150  00000-0  00000-0 0  9991
2 28134   1.3081  89.9126 0000219  40.4351 185.3161  1.00271703 53348
AMC-10 (GE-10)          
1 28154U 04003A   18204.78243663  .00000077  00000-0  00000-0 0  9995
2 28154   0.0562 273.6778 0003024 188.4776 345.9605  1.00272679 52974
ABS-4 (MOBISAT-1)       
1 28184U 04007A   18204.88660442  .00000029  00000-0  00000-0 0  9998
2 28184   0.0158  25.9562 0002221 104.9391 190.8700  1.00270439 23390
EUTELSAT 7A             
1 28187U 04008A   18204.89702080  .00000036  00000-0  00000-0 0  9996
2 28187   0.0635   1.4588 0005568 133.2880 136.7151  1.00270985 52426
DIRECTV 7S              
1 28238U 04016A   18204.70542247 -.00000010  00000-0  00000-0 0  9992
2 28238   0.0202 324.4157 0003233 158.6804 313.1560  1.00273024 52137
AMC-11 (GE-11)          
1 28252U 04017A   18204.77757745  .00000058  00000-0  00000-0 0  9998
2 28252   0.0133   9.2015 0003068 109.9453 331.2244  1.00273723 52004
INTELSAT 10-02          
1 28358U 04022A   18204.87256635 -.00000022  00000-0  00000-0 0  9996
2 28358   0.0129 120.3067 0000580 292.0194 202.3541  1.00271406 51722
APSTAR 5 (TELSTAR 18)   
1 28364U 04024A   18204.82851226 -.00000306  00000-0  00000-0 0  9992
2 28364   0.0033  45.6184 0002235  83.4982 248.6334  1.00270562 51622
ANIK F2                 
1 28378U 04027A   18204.72688162 -.00000061  00000-0  00000-0 0  9994
2 28378   0.0101  57.9543 0000365   5.8975  28.1439  1.00270288 51420
AMC-15                  
1 28446U 04041A   18204.85180424 -.00000100  00000-0  00000-0 0  9992
2 28446   0.0192 350.5166 0002847 129.4554  23.1458  1.00271522 50452
AMC-16                  
1 28472U 04048A   18204.83799293 -.00000217  00000-0  00000-0 0  9995
2 28472   0.0496 287.2289 0002742 188.0706  42.8732  1.00272557 49814
NSS-10 (AMC-12)         
1 28526U 05003A   18204.86532579 -.00000261  00000-0  00000-0 0  9991
2 28526   0.0133 348.1508 0002953 124.9992 102.4424  1.00273038 24238
XTAR-EUR                
1 28542U 05005A   18204.08405937  .00000139  00000-0  00000-0 0  9995
2 28542   0.0167  53.6459 0001852  47.0298 259.3301  1.00271356 49253
XM-3 (RHYTHM)           
1 28626U 05008A   18204.83799293 -.00000216  00000-0  00000-0 0  9992
2 28626   0.0184 231.4989 0000243 221.2636  65.3227  1.00270957 49139
INMARSAT 4-F1           
1 28628U 05009A   18204.81351049 -.00000273  00000-0  00000-0 0  9999
2 28628   2.9261  17.6200 0003081 104.4699 255.7611  1.00272790 48747
APSTAR 6                
1 28638U 05012A   18204.89943501 -.00000331  00000-0  00000-0 0  9997
2 28638   0.1200  95.9941 0002439  34.3355 268.8034  1.00269124 73488
SPACEWAY 1              
1 28644U 05015A   18204.85224042 -.00000113  00000-0  00000-0 0  9993
2 28644   0.0489 232.5425 0000458 210.1691  62.6886  1.00269917 17668
DIRECTV 8               
1 28659U 05019A   18204.44378668 -.00000127  00000-0  00000-0 0  9997
2 28659   0.0168  56.3403 0003208  64.1777 239.4989  1.00271922 48216
GALAXY 28 (G-28)        
1 28702U 05022A   18204.85503196 -.00000196  00000-0  00000-0 0  9997
2 28702   0.0298 281.3865 0000809 248.9296 349.9947  1.00272834 23197
EXPRESS-AM3             
1 28707U 05023A   18204.82153338 -.00000333  00000-0  00000-0 0  9992
2 28707   0.2571  94.7756 0001599 344.3520 261.1182  1.00271252 47905
THAICOM 4               
1 28786U 05028A   18204.82476111 -.00000374  00000-0  00000-0 0  9996
2 28786   0.0135  51.9287 0002453  66.1202 239.8435  1.00272540 47393
GALAXY 14 (G-14)        
1 28790U 05030A   18204.64007573  .00000025  00000-0  00000-0 0  9998
2 28790   0.0174  19.2769 0002708 101.2934 286.1790  1.00274110 47371
ANIK F1R                
1 28868U 05036A   18204.63035458 -.00000085  00000-0  00000-0 0  9999
2 28868   0.0114   9.9699 0002791  73.4513 337.4891  1.00271689 17528
GALAXY 15 (G-15)        
1 28884U 05041A   18204.70263091  .00000068  00000-0  00000-0 0  9997
2 28884   0.0308 286.6405 0001512 194.7376 299.9368  1.00271545 46810
